NORAD_CAT_ID,OBJECT_NAME,OBJECT_TYPE,EPOCH,MEAN_MOTION,ECCENTRICITY,INCLINATION,RA_OF_ASC_NODE,ARG_OF_PERICENTER,MEAN_ANOMALY,BSTAR,MEAN_MOTION_DOT,MEAN_MOTION_DDOT,TLE_LINE0,TLE_LINE1,TLE_LINE2,SEMIMAJOR_AXIS,PERIOD,APOGEE,PERIGEE,DECAYED
50809.0,STARLINK-3232,PAYLOAD,2022-12-01 02:30:21,15.08840152,0.0002331,53.2168,121.8283,45.8795,314.2389,-6.5742e-05,-1.335e-05,0.0,0 STARLINK-3232,1 50809U 22001G   22335.10441628 -.00001335  00000-0 -65742-4 0  9990,2 50809  53.2168 121.8283 0002331  45.8795 314.2389 15.08840152 51483,6917.88,95.438,541.357,538.132,0.0
50809.0,STARLINK-3232,PAYLOAD,2022-12-01 08:51:54,15.08836552,0.0002444,53.218,120.6376,48.9014,311.2189,-8.7632e-05,-1.683e-05,0.0,0 STARLINK-3232,1 50809U 22001G   22335.36937993 -.00001683  00000-0 -87632-4 0  9991,2 50809  53.2180 120.6376 0002444  48.9014 311.2189 15.08836552 50247,6917.891,95.438,541.447,538.065,0.0
50809.0,STARLINK-3232,PAYLOAD,2022-12-01 19:59:36,15.08831606,0.000231,53.2175,118.5574,44.5523,315.5654,8.1564e-05,1.01e-05,0.0,0 STARLINK-3232,1 50809U 22001G   22335.83305969  .00001010  00000-0  81564-4 0  9995,2 50809  53.2175 118.5574 0002310  44.5523 315.5654 15.08831606 50313,6917.906,95.438,541.369,538.173,0.0
50809.0,STARLINK-3232,PAYLOAD,2022-12-02 10:18:04,15.08842946,0.0002258,53.2176,115.8812,45.5161,314.6016,0.00010831,1.436e-05,0.0,0 STARLINK-3232,1 50809U 22001G   22336.42921389  .00001436  00000-0  10831-3 0  9991,2 50809  53.2176 115.8812 0002258  45.5161 314.6016 15.08842946 51681,6917.871,95.437,541.298,538.174,0.0
50809.0,STARLINK-3232,PAYLOAD,2022-12-02 18:15:00,15.08839383,0.0002286,53.2173,114.3942,44.6908,315.4268,7.3149e-05,8.76e-06,0.0,0 STARLINK-3232,1 50809U 22001G   22336.76041765  .00000876  00000-0  73149-4 0  9998,2 50809  53.2173 114.3942 0002286  44.6908 315.4268 15.08839383 50459,6917.882,95.438,541.3290000000002,538.1659999999998,0.0
50809.0,STARLINK-3232,PAYLOAD,2022-12-03 10:08:52,15.08832371,0.0002304,53.2175,111.4203,42.3641,317.7528,0.00011025,1.466e-05,0.0,0 STARLINK-3232,1 50809U 22001G   22337.42282432  .00001466  00000-0  11025-3 0  9990,2 50809  53.2175 111.4203 0002304  42.3641 317.7528 15.08832371 51836,6917.904,95.438,541.363,538.175,0.0
50809.0,STARLINK-3232,PAYLOAD,2022-12-03 13:19:38,15.08827869,0.0002246,53.2178,110.8254,43.2036,316.9132,4.0065e-05,3.49e-06,0.0,0 STARLINK-3232,1 50809U 22001G   22337.55530911  .00000349  00000-0  40065-4 0  9998,2 50809  53.2178 110.8254 0002246  43.2036 316.9132 15.08827869 50579,6917.917,95.438,541.336,538.229,0.0
50809.0,STARLINK-3232,PAYLOAD,2022-12-03 16:30:25,15.08827053,0.0002326,53.2181,110.2306,40.4184,319.6981,-1.1963e-05,-4.79e-06,0.0,0 STARLINK-3232,1 50809U 22001G   22337.68779158 -.00000479  00000-0 -11963-4 0  9991,2 50809  53.2181 110.2306 0002326  40.4184 319.6981 15.08827053 51878,6917.92,95.438,541.394,538.1759999999998,0.0
50809.0,STARLINK-3232,PAYLOAD,2022-12-04 09:59:39,15.08836304,0.0002252,53.2167,106.9595,37.746,322.3689,2.4767e-05,1.06e-06,0.0,0 STARLINK-3232,1 50809U 22001G   22338.41642768  .00000106  00000-0  24767-4 0  9990,2 50809  53.2167 106.9595 0002252  37.7460 322.3689 15.08836304 51985,6917.892,95.438,541.315,538.1990000000002,0.0
50809.0,STARLINK-3232,PAYLOAD,2022-12-04 16:21:11,15.08837584,0.0002298,53.2176,105.7704,38.7519,321.3638,0.00013849,1.916e-05,0.0,0 STARLINK-3232,1 50809U 22001G   22338.68138484  .00001916  00000-0  13849-3 0  9992,2 50809  53.2176 105.7704 0002298  38.7519 321.3638 15.08837584 50747,6917.888000000001,95.438,541.3430000000002,538.163,0.0
50809.0,STARLINK-3232,PAYLOAD,2022-12-05 01:53:29,15.08847863,0.000222,53.218,103.9864,40.4852,319.6305,0.00016663,2.365e-05,0.0,0 STARLINK-3232,1 50809U 22001G   22339.07881713  .00002365  00000-0  16663-3 0  9992,2 50809  53.2180 103.9864 0002220  40.4852 319.6305 15.08847863 52085,6917.856,95.437,541.257,538.186,0.0
50809.0,STARLINK-3232,PAYLOAD,2022-12-05 08:15:02,15.08856294,0.0002239,53.2184,102.7977,40.2201,319.8956,-9.6137e-06,-4.41e-06,0.0,0 STARLINK-3232,1 50809U 22001G   22339.34377584 -.00000441  00000-0 -96137-5 0  9999,2 50809  53.2184 102.7977 0002239  40.2201 319.8956 15.08856294 50841,6917.831,95.437,541.244,538.1469999999998,0.0
50809.0,STARLINK-3232,PAYLOAD,2022-12-05 14:36:35,15.08840428,0.000228,53.2187,101.6084,42.3604,317.7564,0.00020345,2.951e-05,0.0,0 STARLINK-3232,1 50809U 22001G   22339.60874203  .00002951  00000-0  20345-3 0  9990,2 50809  53.2187 101.6084 0002280  42.3604 317.7564 15.08840428 52168,6917.879,95.438,541.321,538.1669999999998,0.0
50809.0,STARLINK-3232,PAYLOAD,2022-12-06 01:44:16,15.08847599,0.0002309,53.2187,99.5268,43.3785,316.7389,0.0002063,2.997e-05,0.0,0 STARLINK-3232,1 50809U 22001G   22340.07241731  .00002997  00000-0  20630-3 0  9994,2 50809  53.2187  99.5268 0002309  43.3785 316.7389 15.08847599 50955,6917.857,95.437,541.319,538.125,0.0
50809.0,STARLINK-3232,PAYLOAD,2022-12-06 19:13:32,15.08835444,0.0002251,53.2171,96.253,52.5726,307.547,-0.00012001,-2.198e-05,0.0,0 STARLINK-3232,1 50809U 22001G   22340.80106494 -.00002198  00000-0 -12001-3 0  9999,2 50809  53.2171  96.2530 0002251  52.5726 307.5470 15.08835444 52347,6917.894,95.438,541.317,538.202,0.0
50809.0,STARLINK-3232,PAYLOAD,2022-12-07 19:04:19,15.0884106,0.0002281,53.2189,91.794,39.0472,321.0685,-1.2355e-05,-4.85e-06,0.0,0 STARLINK-3232,1 50809U 22001G   22341.79466551 -.00000485  00000-0 -12355-4 0  9991,2 50809  53.2189  91.7940 0002281  39.0472 321.0685 15.08841060 51217,6917.877,95.437,541.32,538.164,0.0
50809.0,STARLINK-3232,PAYLOAD,2022-12-08 07:47:23,15.08846272,0.0002177,53.2184,89.4164,31.8481,328.2642,0.00017021,2.422e-05,0.0,0 STARLINK-3232,1 50809U 22001G   22342.32457535  .00002422  00000-0  17021-3 0  9998,2 50809  53.2184  89.4164 0002177  31.8481 328.2642 15.08846272 51298,6917.861,95.437,541.232,538.22,0.0
50809.0,STARLINK-3232,PAYLOAD,2022-12-08 14:08:55,15.08843622,0.0002208,53.2193,88.2276,25.1082,335.0017,0.00016441,2.33e-05,0.0,0 STARLINK-3232,1 50809U 22001G   22342.58953670  .00002330  00000-0  16441-3 0  9990,2 50809  53.2193  88.2276 0002208  25.1082 335.0017 15.08843622 52612,6917.869000000002,95.437,541.262,538.207,0.0
50809.0,STARLINK-3232,PAYLOAD,2022-12-08 23:41:13,15.08874027,0.0002419,53.2189,86.4464,29.0454,331.0673,-0.00015249,-2.717e-05,0.0,0 STARLINK-3232,1 50809U 22001G   22342.98696137 -.00002717  00000-0 -15249-3 0  9992,2 50809  53.2189  86.4464 0002419  29.0454 331.0673 15.08874027 52679,6917.776,95.435,541.315,537.9680000000002,0.0
50809.0,STARLINK-3232,PAYLOAD,2022-12-09 07:38:15,15.0877269,0.0002901,53.2191,84.9609,3.1294,356.9716,-0.00044808,-7.4e-05,0.0,0 STARLINK-3232,1 50809U 22001G   22343.31823384 -.00007400  00000-0 -44808-3 0  9993,2 50809  53.2191  84.9609 0002901   3.1294 356.9716 15.08772690 51448,6918.0859999999975,95.442,541.9580000000002,537.944,0.0
50809.0,STARLINK-3232,PAYLOAD,2022-12-09 18:45:54,15.08816293,0.0002345,53.2192,82.8791,25.8778,334.2331,-3.9157e-05,-9.11e-06,0.0,0 STARLINK-3232,1 50809U 22001G   22343.78188114 -.00000911  00000-0 -39157-4 0  9991,2 50809  53.2192  82.8791 0002345  25.8778 334.2331 15.08816293 52797,6917.953,95.439,541.44,538.196,0.0
50809.0,STARLINK-3232,PAYLOAD,2022-12-10 10:39:45,15.08831495,0.0002213,53.2193,79.9019,30.6715,329.4406,-1.7579000000000002e-05,-5.68e-06,0.0,0 STARLINK-3232,1 50809U 22001G   22344.44427401 -.00000568  00000-0 -17579-4 0  9992,2 50809  53.2193  79.9019 0002213  30.6715 329.4406 15.08831495 52898,6917.906,95.438,541.302,538.24,0.0
50809.0,STARLINK-3232,PAYLOAD,2022-12-10 13:50:31,15.08836104,0.0002536,53.2186,79.307,17.7697,342.3384,1.0225e-05,-1.26e-06,0.0,0 STARLINK-3232,1 50809U 22001G   22344.57675174 -.00000126  00000-0  10225-4 0  9998,2 50809  53.2186  79.3070 0002536  17.7697 342.3384 15.08836104 51636,6917.892,95.438,541.512,538.003,0.0
50809.0,STARLINK-3232,PAYLOAD,2022-12-11 07:19:45,15.08847235,0.0002299,53.2183,76.0357,24.2957,335.8143,-1.917e-05,-5.94e-06,0.0,0 STARLINK-3232,1 50809U 22001G   22345.30538307 -.00000594  00000-0 -19170-4 0  9994,2 50809  53.2183  76.0357 0002299  24.2957 335.8143 15.08847235 53025,6917.858,95.437,541.314,538.133,0.0
50809.0,STARLINK-3232,PAYLOAD,2022-12-11 12:05:55,15.08838042,0.0002417,53.2185,75.1439,28.9227,331.1898,0.00036048,5.453e-05,0.0,0 STARLINK-3232,1 50809U 22001G   22345.50411077  .00005453  00000-0  36048-3 0  9999,2 50809  53.2185  75.1439 0002417  28.9227 331.1898 15.08838042 51773,6917.886,95.438,541.423,538.0790000000002,0.0
50809.0,STARLINK-3232,PAYLOAD,2022-12-11 13:41:18,15.08840628,0.0002438,53.2187,74.8468,28.0633,332.0490000000001,0.00039643,6.027e-05,0.0,0 STARLINK-3232,1 50809U 22001G   22345.57035036  .00006027  00000-0  39643-3 0  9995,2 50809  53.2187  74.8468 0002438  28.0633 332.0490 15.08840628 53063,6917.878000000002,95.438,541.43,538.057,0.0
50809.0,STARLINK-3232,PAYLOAD,2022-12-12 10:21:19,15.08837806,0.0002388,53.2195,70.9817,35.9357,324.1795,0.00014357,1.997e-05,0.0,0 STARLINK-3232,1 50809U 22001G   22346.43147483  .00001997  00000-0  14357-3 0  9997,2 50809  53.2195  70.9817 0002388  35.9357 324.1795 15.08837806 53199,6917.887,95.438,541.404,538.1,0.0
50809.0,STARLINK-3232,PAYLOAD,2022-12-12 11:56:42,15.08839682,0.0002375,53.2188,70.6837,31.7408,328.3726,9.1503e-05,1.168e-05,0.0,0 STARLINK-3232,1 50809U 22001G   22346.49771351  .00001168  00000-0  91503-4 0  9999,2 50809  53.2188  70.6837 0002375  31.7408 328.3726 15.08839682 51920,6917.880999999999,95.438,541.389,538.1030000000002,0.0
50809.0,STARLINK-3232,PAYLOAD,2022-12-13 10:12:05,15.08850037,0.0002448,53.2175,66.52,28.6162,331.4964,0.00015679,2.209e-05,0.0,0 STARLINK-3232,1 50809U 22001G   22347.42506692  .00002209  00000-0  15679-3 0  9993,2 50809  53.2175  66.5200 0002448  28.6162 331.4964 15.08850037 52069,6917.85,95.437,541.408,538.021,0.0
